0 DELTA 1 DEB
1 10246U 77065BX  13282.80994427  .00019803  00000-0  15102-2 0  9674
2 10246 029.0164 056.6888 0230588 265.3821 220.7593 14.81991701839741
0 DELTA 1 DEB
1 10246U 77065BX  13285.77591186  .00017174  00000-0  13057-2 0  9696
2 10246 029.0166 037.9718 0230379 295.6240 205.2113 14.82091482840180
0 DELTA 1 DEB
1 10246U 77065BX  13288.53073294  .00024663  00000-0  18771-2 0  9709
2 10246 029.0162 020.5848 0230086 323.7115 144.0722 14.82191085840598
0 DELTA 1 DEB
1 10246U 77065BX  13289.46465898  .00021263  00000-0  16163-2 0  9714
2 10246 029.0160 014.6898 0229985 333.2328 087.4490 14.82222692840730
0 DELTA 1 DEB
1 10246U 77065BX  13290.54782459  .00021749  00000-0  16521-2 0  9728
2 10246 029.0157 007.8527 0229952 344.2793 107.2873 14.82257778840897
0 DELTA 1 DEB
1 10246U 77065BX  13292.50746073  .00017681  00000-0  13393-2 0  9733
2 10246 029.0151 355.4814 0229849 004.2590 124.4089 14.82324036841180
0 DELTA 1 DEB
1 10246U 77065BX  13294.52914744  .00020028  00000-0  15166-2 0  9749
2 10246 029.0147 342.7163 0229768 024.8515 113.1389 14.82384240841480
